{
  "norad_id": 65240,
  "name": "STARLINK-34953",
  "history": [
    {
      "epoch": "2026-03-28T21:03:38.251584Z",
      "apogee_km": 549.9888393119891,
      "perigee_km": 548.9988808620828,
      "latitude_deg": -4.51910343634755e-05,
      "longitude_deg": -10.351440671846186,
      "height_km": 552.7859941057991,
      "semi_major_axis_km": 6927.630860087035,
      "eccentricity": 7.145e-05,
      "inclination_deg": 97.6022,
      "raan_deg": 131.8496,
      "arg_perigee_deg": 117.4097,
      "mean_anomaly_deg": 242.7202,
      "mean_motion_rev_day": 15.05655638
    },
    {
      "epoch": "2026-03-29T01:50:44.199744Z",
      "apogee_km": 549.9840198931706,
      "perigee_km": 549.0099945517559,
      "latitude_deg": -1.2072938779007328e-05,
      "longitude_deg": -82.12664145228358,
      "height_km": 552.8286175178597,
      "semi_major_axis_km": 6927.634007222463,
      "eccentricity": 7.03e-05,
      "inclination_deg": 97.6024,
      "raan_deg": 132.0457,
      "arg_perigee_deg": 123.2844,
      "mean_anomaly_deg": 236.845,
      "mean_motion_rev_day": 15.05654612
    },
    {
      "epoch": "2026-03-30T01:46:14.007072Z",
      "apogee_km": 550.1527207025028,
      "perigee_km": 548.7965714466682,
      "latitude_deg": -1.5753197148770602e-05,
      "longitude_deg": -81.00060024774376,
      "height_km": 552.8857418598135,
      "semi_major_axis_km": 6927.611646074585,
      "eccentricity": 9.788e-05,
      "inclination_deg": 97.6017,
      "raan_deg": 133.0285,
      "arg_perigee_deg": 120.7906,
      "mean_anomaly_deg": 239.3417,
      "mean_motion_rev_day": 15.05661902
    },
    {
      "epoch": "2026-03-30T12:56:07.845216Z",
      "apogee_km": 549.6436705884798,
      "perigee_km": 549.2949348871998,
      "latitude_deg": -3.008945754072122e-05,
      "longitude_deg": 111.5252481828041,
      "height_km": 552.6019786825385,
      "semi_major_axis_km": 6927.6063027378395,
      "eccentricity": 2.517e-05,
      "inclination_deg": 97.6026,
      "raan_deg": 133.4872,
      "arg_perigee_deg": 112.8901,
      "mean_anomaly_deg": 247.2352,
      "mean_motion_rev_day": 15.05663644
    },
    {
      "epoch": "2026-03-30T20:54:38.401920Z",
      "apogee_km": 550.311816870586,
      "perigee_km": 548.7016939089581,
      "latitude_deg": 1.2697382282670479e-05,
      "longitude_deg": -8.10150467556424,
      "height_km": 552.5759544268111,
      "semi_major_axis_km": 6927.643755389771,
      "eccentricity": 0.00011621,
      "inclination_deg": 97.602,
      "raan_deg": 133.8153,
      "arg_perigee_deg": 90.4151,
      "mean_anomaly_deg": 269.7209,
      "mean_motion_rev_day": 15.05651434
    },
    {
      "epoch": "2026-03-31T20:50:08.466720Z",
      "apogee_km": 549.9719147223577,
      "perigee_km": 549.0463811969912,
      "latitude_deg": -1.237377707930129e-05,
      "longitude_deg": -6.977435555481721,
      "height_km": 552.7691295946131,
      "semi_major_axis_km": 6927.646147959675,
      "eccentricity": 6.68e-05,
      "inclination_deg": 97.6023,
      "raan_deg": 134.7972,
      "arg_perigee_deg": 115.0155,
      "mean_anomaly_deg": 245.1141,
      "mean_motion_rev_day": 15.05650654
    },
    {
      "epoch": "2026-04-01T20:45:38.347488Z",
      "apogee_km": 550.004459163606,
      "perigee_km": 548.9722429862968,
      "latitude_deg": -2.9830993233751532e-05,
      "longitude_deg": -5.8515986625485725,
      "height_km": 552.7235937947115,
      "semi_major_axis_km": 6927.625351074951,
      "eccentricity": 7.45e-05,
      "inclination_deg": 97.6021,
      "raan_deg": 135.7801,
      "arg_perigee_deg": 109.3598,
      "mean_anomaly_deg": 250.7709,
      "mean_motion_rev_day": 15.05657434
    },
    {
      "epoch": "2026-04-02T12:42:38.083680Z",
      "apogee_km": 549.919356243071,
      "perigee_km": 549.051186620015,
      "latitude_deg": 1.8484411196331445e-05,
      "longitude_deg": 114.89915444573803,
      "height_km": 552.8134270476849,
      "semi_major_axis_km": 6927.622271431543,
      "eccentricity": 6.266e-05,
      "inclination_deg": 97.6028,
      "raan_deg": 136.4348,
      "arg_perigee_deg": 127.4057,
      "mean_anomaly_deg": 232.7227,
      "mean_motion_rev_day": 15.05658438
    },
    {
      "epoch": "2026-04-03T14:13:50.131776Z",
      "apogee_km": 549.5199305472697,
      "perigee_km": 549.4492688069531,
      "latitude_deg": 1.986914313362062e-05,
      "longitude_deg": 92.09808443839059,
      "height_km": 552.5190987319857,
      "semi_major_axis_km": 6927.621599677111,
      "eccentricity": 5.1e-06,
      "inclination_deg": 97.6035,
      "raan_deg": 137.482,
      "arg_perigee_deg": 330.2615,
      "mean_anomaly_deg": 29.8609,
      "mean_motion_rev_day": 15.05658657
    },
    {
      "epoch": "2026-04-04T20:32:08.598048Z",
      "apogee_km": 550.1442533576728,
      "perigee_km": 548.8570982775054,
      "latitude_deg": 2.4586554542498125e-05,
      "longitude_deg": -2.477847275990428,
      "height_km": 552.7488481315536,
      "semi_major_axis_km": 6927.637675817588,
      "eccentricity": 9.29e-05,
      "inclination_deg": 97.602,
      "raan_deg": 138.7276,
      "arg_perigee_deg": 106.6429,
      "mean_anomaly_deg": 253.49,
      "mean_motion_rev_day": 15.05653416
    },
    {
      "epoch": "2026-04-05T09:17:44.448000Z",
      "apogee_km": 550.1450720147704,
      "perigee_km": 548.827992228843,
      "latitude_deg": 9.881255275112854e-06,
      "longitude_deg": 166.1228461774347,
      "height_km": 552.7435225960495,
      "semi_major_axis_km": 6927.623532121806,
      "eccentricity": 9.506e-05,
      "inclination_deg": 97.6022,
      "raan_deg": 139.2517,
      "arg_perigee_deg": 107.0573,
      "mean_anomaly_deg": 253.0758,
      "mean_motion_rev_day": 15.05658027
    },
    {
      "epoch": "2026-04-06T02:50:26.564064Z",
      "apogee_km": 549.8200226162853,
      "perigee_km": 549.1724274624085,
      "latitude_deg": 6.395028023439229e-05,
      "longitude_deg": -97.05149486107281,
      "height_km": 552.7974342588724,
      "semi_major_axis_km": 6927.633225039347,
      "eccentricity": 4.674e-05,
      "inclination_deg": 97.6022,
      "raan_deg": 139.9734,
      "arg_perigee_deg": 136.9105,
      "mean_anomaly_deg": 223.2159,
      "mean_motion_rev_day": 15.05654867
    },
    {
      "epoch": "2026-04-07T13:55:50.625984Z",
      "apogee_km": 550.1936131050725,
      "perigee_km": 548.804622063496,
      "latitude_deg": 9.932230818871392e-06,
      "longitude_deg": 96.59765462021375,
      "height_km": 552.7796950780612,
      "semi_major_axis_km": 6927.636117584284,
      "eccentricity": 0.00010025,
      "inclination_deg": 97.6025,
      "raan_deg": 141.4139,
      "arg_perigee_deg": 108.193,
      "mean_anomaly_deg": 251.9406,
      "mean_motion_rev_day": 15.05653924
    },
    {
      "epoch": "2026-04-07T20:18:38.642112Z",
      "apogee_km": 550.2661465785768,
      "perigee_km": 548.7365240341414,
      "latitude_deg": 1.0173621475781406e-05,
      "longitude_deg": 0.8974691351998196,
      "height_km": 552.8048176204921,
      "semi_major_axis_km": 6927.638335306358,
      "eccentricity": 0.0001104,
      "inclination_deg": 97.602,
      "raan_deg": 141.6758,
      "arg_perigee_deg": 108.2788,
      "mean_anomaly_deg": 251.8559,
      "mean_motion_rev_day": 15.05653201
    },
    {
      "epoch": "2026-04-08T13:51:20.592288Z",
      "apogee_km": 550.2893861666789,
      "perigee_km": 548.715149419465,
      "latitude_deg": -4.658639270160466e-05,
      "longitude_deg": 97.72283505668713,
      "height_km": 552.8294072852599,
      "semi_major_axis_km": 6927.639267793072,
      "eccentricity": 0.00011362,
      "inclination_deg": 97.6009,
      "raan_deg": 142.3965,
      "arg_perigee_deg": 109.5602,
      "mean_anomaly_deg": 250.5747,
      "mean_motion_rev_day": 15.05652897
    },
    {
      "epoch": "2026-04-09T08:59:44.684736Z",
      "apogee_km": 550.346425646112,
      "perigee_km": 548.6655023573267,
      "latitude_deg": 5.575029308839801e-05,
      "longitude_deg": 170.62208095475972,
      "height_km": 552.839229791869,
      "semi_major_axis_km": 6927.642964001719,
      "eccentricity": 0.00012132,
      "inclination_deg": 97.6024,
      "raan_deg": 143.1822,
      "arg_perigee_deg": 108.727,
      "mean_anomaly_deg": 251.4089,
      "mean_motion_rev_day": 15.05651692
    },
    {
      "epoch": "2026-04-10T08:55:14.453184Z",
      "apogee_km": 550.2604738071959,
      "perigee_km": 548.7059158354778,
      "latitude_deg": 1.999856795245432e-06,
      "longitude_deg": 171.7484879898328,
      "height_km": 552.8227144465346,
      "semi_major_axis_km": 6927.620194821337,
      "eccentricity": 0.0001122,
      "inclination_deg": 97.6031,
      "raan_deg": 144.1652,
      "arg_perigee_deg": 110.7931,
      "mean_anomaly_deg": 249.3416,
      "mean_motion_rev_day": 15.05659115
    },
    {
      "epoch": "2026-04-11T20:00:38.562624Z",
      "apogee_km": 550.1454107591408,
      "perigee_km": 548.8845780961547,
      "latitude_deg": 1.2019913857063625e-05,
      "longitude_deg": 5.397731521899919,
      "height_km": 552.9164587218914,
      "semi_major_axis_km": 6927.651994427647,
      "eccentricity": 9.1e-05,
      "inclination_deg": 97.6024,
      "raan_deg": 145.606,
      "arg_perigee_deg": 122.3582,
      "mean_anomaly_deg": 237.7733,
      "mean_motion_rev_day": 15.05648748
    },
    {
      "epoch": "2026-04-13T00:43:13.269216Z",
      "apogee_km": 550.5331938356449,
      "perigee_km": 548.4716668939573,
      "latitude_deg": 2.015432298981776e-05,
      "longitude_deg": -65.24664415755849,
      "height_km": 552.638104300513,
      "semi_major_axis_km": 6927.639430364801,
      "eccentricity": 0.00014879,
      "inclination_deg": 97.6036,
      "raan_deg": 146.7853,
      "arg_perigee_deg": 94.0542,
      "mean_anomaly_deg": 266.0855,
      "mean_motion_rev_day": 15.05652844
    }
  ]
}